ONEWEB-0435             
1 51632U 22012L   25037.78815640  .00000500  00000+0  13958-2 0  9992
2 51632  87.8915 135.0060 0002114 117.7515 242.3827 13.10373044144437
ONEWEB-0436             
1 51633U 22012M   25037.65276605 -.00000071  00000+0 -21721-3 0  9994
2 51633  87.9067 104.5761 0002209 106.5529 253.5845 13.17647089148429
ONEWEB-0438             
1 51634U 22012N   25037.77154081 -.00000044  00000+0 -16148-3 0  9998
2 51634  87.8919 135.0101 0001591 105.0544 255.0760 13.10375273145758
ONEWEB-0439             
1 51635U 22012P   25037.77486595  .00000149  00000+0  38939-3 0  9993
2 51635  87.8919 134.9960 0001776 108.3500 251.7821 13.10375702145728
ONEWEB-0442             
1 51636U 22012Q   25037.72110555 -.00000054  00000+0 -17135-3 0  9991
2 51636  87.9067 104.6055 0001551  82.3354 277.7954 13.17650824148425
ONEWEB-0443             
1 51637U 22012R   25037.74051985 -.00000049  00000+0 -16000-3 0  9999
2 51637  87.9069 104.6137 0001581 106.9550 253.1755 13.17649988148474
ONEWEB-0444             
1 51638U 22012S   25037.76489406 -.00000377  00000+0 -11162-2 0  9992
2 51638  87.8912 135.0078 0001792 112.5047 247.6270 13.10374740145742
ONEWEB-0445             
1 51639U 22012T   25037.78649349  .00000525  00000+0  14670-2 0  9999
2 51639  87.8908 134.9646 0001819 100.0349 260.0983 13.10373726144465
